{
  "norad_id": 59361,
  "name": "STARLINK-31560",
  "history": [
    {
      "epoch": "2026-03-28T20:45:32.442048Z",
      "apogee_km": 483.71058829978483,
      "perigee_km": 482.4058634156354,
      "latitude_deg": 2.4695342236987915e-05,
      "longitude_deg": 14.051672909075819,
      "height_km": 482.6809878039896,
      "semi_major_axis_km": 6861.19522585771,
      "eccentricity": 9.508e-05,
      "inclination_deg": 42.9985,
      "raan_deg": 151.7161,
      "arg_perigee_deg": 283.5986,
      "mean_anomaly_deg": 76.476,
      "mean_motion_rev_day": 15.27576951
    }
  ]
}